XJS F                   
1 45253U 20014E   22072.81619971  .00013996  00000+0  42703-3 0  9997
2 45253  35.0151 338.0578 0008224 285.4216  74.5593 15.33053100115331
MERIDIAN 9              
1 45254U 20015A   22072.36280755  .00000308  00000+0  00000+0 0  9996
2 45254  63.1134 135.1335 6892787 294.1244 108.7054  2.00608754 15085
HARP                    
1 45256U 98067QZ  22072.14733046  .00304156  00000+0  10264-2 0  9996
2 45256  51.6398  40.2436 0004892 158.1779 201.9435 15.88624266117412
1998-067RA              
1 45257U 98067RA  22072.15466807  .00135285  00000+0  76993-3 0  9993
2 45257  51.6338  47.6355 0004493 143.6106 216.5201 15.78028583117319
PHOENIX                 
1 45258U 98067RB  22072.21957580  .00084610  00000+0  64964-3 0  9994
2 45258  51.6349  54.1252 0004383 136.5667 223.5677 15.71321305117206
RADSAT-U                
1 45262U 98067RF  22072.34729763  .00155753  00000+0  80931-3 0  9992
2 45262  51.6393  44.6127 0002657 141.9680 218.1509 15.79984001117381
SORTIE                  
1 45264U 98067RH  22072.40876739  .00041904  00000+0  42667-3 0  9993
2 45264  51.6391  62.2789 0004535 179.6863 180.4135 15.64688985117145
BEIDOU-3 G2             
1 45344U 20017A   22072.50804569 -.00000143  00000+0  00000+0 0  9997
2 45344   2.1377 347.3859 0002447  65.5075  21.1365  1.00272534  7656
COSMOS 2545 [GLONASS-M] 
1 45358U 20018A   22072.30882240 -.00000078  00000+0  00000+0 0  9990
2 45358  64.9220   6.6291 0009687 261.2105 167.3915  2.13102619 15486
STARLINK-1279           
1 45360U 20019A   22072.82729544 -.00002892  00000+0 -17538-3 0  9993
2 45360  53.0535 196.7276 0001407  70.7916 289.3225 15.06386534110555
STARLINK-1301           
1 45361U 20019B   22072.54991515  .00004338  00000+0  30984-3 0  9997
2 45361  53.0527 207.9715 0001506  78.6880 281.4278 15.06411891110384
STARLINK-1306           
1 45362U 20019C   22072.59599487  .00000601  00000+0  59211-4 0  9999
2 45362  53.0541 227.7637 0001527  68.3733 291.7418 15.06410589110103
STARLINK-1313           
1 45364U 20019E   22072.82359939  .00007238  00000+0  50417-3 0  9994
2 45364  53.0538 196.7501 0001897  46.3527 313.7619 15.06412322110557
