[
    {
       "OBJECT_NAME": "XJS F",
       "OBJECT_ID": "2020-014E",
       "EPOCH": "2022-03-13T19:35:19.654944",
       "MEAN_MOTION": 15.330531,
       "ECCENTRICITY": 0.0008224,
       "INCLINATION": 35.0151,
       "RA_OF_ASC_NODE": 338.0578,
       "ARG_OF_PERICENTER": 285.4216,
       "MEAN_ANOMALY": 74.5593,
       "EPHEMERIS_TYPE": 0,
       "CLASSIFICATION_TYPE": "U",
       "NORAD_CAT_ID": 45253,
       "ELEMENT_SET_NO": 999,
       "REV_AT_EPOCH": 11533,
       "BSTAR": 0.00042703,
       "MEAN_MOTION_DOT": 0.00013996,
       "MEAN_MOTION_DDOT": 0
    },
    {
       "OBJECT_NAME": "MERIDIAN 9",
       "OBJECT_ID": "2020-015A",
       "EPOCH": "2022-03-13T08:42:26.572320",
       "MEAN_MOTION": 2.00608754,
       "ECCENTRICITY": 0.6892787,
       "INCLINATION": 63.1134,
       "RA_OF_ASC_NODE": 135.1335,
       "ARG_OF_PERICENTER": 294.1244,
       "MEAN_ANOMALY": 108.7054,
       "EPHEMERIS_TYPE": 0,
       "CLASSIFICATION_TYPE": "U",
       "NORAD_CAT_ID": 45254,
       "ELEMENT_SET_NO": 999,
       "REV_AT_EPOCH": 1508,
       "BSTAR": 0,
       "MEAN_MOTION_DOT": 0.00000308,
       "MEAN_MOTION_DDOT": 0
    },
    {
       "OBJECT_NAME": "HARP",
       "OBJECT_ID": "1998-067QZ",
       "EPOCH": "2022-03-13T03:32:09.351744",
       "MEAN_MOTION": 15.88624266,
       "ECCENTRICITY": 0.0004892,
       "INCLINATION": 51.6398,
       "RA_OF_ASC_NODE": 40.2436,
       "ARG_OF_PERICENTER": 158.1779,
       "MEAN_ANOMALY": 201.9435,
       "EPHEMERIS_TYPE": 0,
       "CLASSIFICATION_TYPE": "U",
       "NORAD_CAT_ID": 45256,
       "ELEMENT_SET_NO": 999,
       "REV_AT_EPOCH": 11741,
       "BSTAR": 0.0010264,
       "MEAN_MOTION_DOT": 0.00304156,
       "MEAN_MOTION_DDOT": 0
    },
    {
       "OBJECT_NAME": "1998-067RA",
       "OBJECT_ID": "1998-067RA",
       "EPOCH": "2022-03-13T03:42:43.321248",
       "MEAN_MOTION": 15.78028583,
       "ECCENTRICITY": 0.0004493,
       "INCLINATION": 51.6338,
       "RA_OF_ASC_NODE": 47.6355,
       "ARG_OF_PERICENTER": 143.6106,
       "MEAN_ANOMALY": 216.5201,
       "EPHEMERIS_TYPE": 0,
       "CLASSIFICATION_TYPE": "U",
       "NORAD_CAT_ID": 45257,
       "ELEMENT_SET_NO": 999,
       "REV_AT_EPOCH": 11731,
       "BSTAR": 0.00076993,
       "MEAN_MOTION_DOT": 0.00135285,
       "MEAN_MOTION_DDOT": 0
    },
    {
       "OBJECT_NAME": "PHOENIX",
       "OBJECT_ID": "1998-067RB",
       "EPOCH": "2022-03-13T05:16:11.349120",
       "MEAN_MOTION": 15.71321305,
       "ECCENTRICITY": 0.0004383,
       "INCLINATION": 51.6349,
       "RA_OF_ASC_NODE": 54.1252,
       "ARG_OF_PERICENTER": 136.5667,
       "MEAN_ANOMALY": 223.5677,
       "EPHEMERIS_TYPE": 0,
       "CLASSIFICATION_TYPE": "U",
       "NORAD_CAT_ID": 45258,
       "ELEMENT_SET_NO": 999,
       "REV_AT_EPOCH": 11720,
       "BSTAR": 0.00064964,
       "MEAN_MOTION_DOT": 0.0008461,
       "MEAN_MOTION_DDOT": 0
    },
    {
       "OBJECT_NAME": "RADSAT-U",
       "OBJECT_ID": "1998-067RF",
       "EPOCH": "2022-03-13T08:20:06.515232",
       "MEAN_MOTION": 15.79984001,
       "ECCENTRICITY": 0.0002657,
       "INCLINATION": 51.6393,
       "RA_OF_ASC_NODE": 44.6127,
       "ARG_OF_PERICENTER": 141.968,
       "MEAN_ANOMALY": 218.1509,
       "EPHEMERIS_TYPE": 0,
       "CLASSIFICATION_TYPE": "U",
       "NORAD_CAT_ID": 45262,
       "ELEMENT_SET_NO": 999,
       "REV_AT_EPOCH": 11738,
       "BSTAR": 0.00080931,
       "MEAN_MOTION_DOT": 0.00155753,
       "MEAN_MOTION_DDOT": 0
    },
    {
       "OBJECT_NAME": "SORTIE",
       "OBJECT_ID": "1998-067RH",
       "EPOCH": "2022-03-13T09:48:37.502496",
       "MEAN_MOTION": 15.64688985,
       "ECCENTRICITY": 0.0004535,
       "INCLINATION": 51.6391,
       "RA_OF_ASC_NODE": 62.2789,
       "ARG_OF_PERICENTER": 179.6863,
       "MEAN_ANOMALY": 180.4135,
       "EPHEMERIS_TYPE": 0,
       "CLASSIFICATION_TYPE": "U",
       "NORAD_CAT_ID": 45264,
       "ELEMENT_SET_NO": 999,
       "REV_AT_EPOCH": 11714,
       "BSTAR": 0.00042667,
       "MEAN_MOTION_DOT": 0.00041904,
       "MEAN_MOTION_DDOT": 0
    },
    {
       "OBJECT_NAME": "BEIDOU-3 G2",
       "OBJECT_ID": "2020-017A",
       "EPOCH": "2022-03-13T12:11:35.147616",
       "MEAN_MOTION": 1.00272534,
       "ECCENTRICITY": 0.0002447,
       "INCLINATION": 2.1377,
       "RA_OF_ASC_NODE": 347.3859,
       "ARG_OF_PERICENTER": 65.5075,
       "MEAN_ANOMALY": 21.1365,
       "EPHEMERIS_TYPE": 0,
       "CLASSIFICATION_TYPE": "U",
       "NORAD_CAT_ID": 45344,
       "ELEMENT_SET_NO": 999,
       "REV_AT_EPOCH": 765,
       "BSTAR": 0,
       "MEAN_MOTION_DOT": -0.00000143,
       "MEAN_MOTION_DDOT": 0
    },
    {
       "OBJECT_NAME": "COSMOS 2545 [GLONASS-M]",
       "OBJECT_ID": "2020-018A",
       "EPOCH": "2022-03-13T07:24:42.255360",
       "MEAN_MOTION": 2.13102619,
       "ECCENTRICITY": 0.0009687,
       "INCLINATION": 64.922,
       "RA_OF_ASC_NODE": 6.6291,
       "ARG_OF_PERICENTER": 261.2105,
       "MEAN_ANOMALY": 167.3915,
       "EPHEMERIS_TYPE": 0,
       "CLASSIFICATION_TYPE": "U",
       "NORAD_CAT_ID": 45358,
       "ELEMENT_SET_NO": 999,
       "REV_AT_EPOCH": 1548,
       "BSTAR": 0,
       "MEAN_MOTION_DOT": -7.8e-7,
       "MEAN_MOTION_DDOT": 0
    },
    {
       "OBJECT_NAME": "STARLINK-1279",
       "OBJECT_ID": "2020-019A",
       "EPOCH": "2022-03-13T19:51:18.326016",
       "MEAN_MOTION": 15.06386534,
       "ECCENTRICITY": 0.0001407,
       "INCLINATION": 53.0535,
       "RA_OF_ASC_NODE": 196.7276,
       "ARG_OF_PERICENTER": 70.7916,
       "MEAN_ANOMALY": 289.3225,
       "EPHEMERIS_TYPE": 0,
       "CLASSIFICATION_TYPE": "U",
       "NORAD_CAT_ID": 45360,
       "ELEMENT_SET_NO": 999,
       "REV_AT_EPOCH": 11055,
       "BSTAR": -0.00017538,
       "MEAN_MOTION_DOT": -0.00002892,
       "MEAN_MOTION_DDOT": 0
    },
    {
       "OBJECT_NAME": "STARLINK-1301",
       "OBJECT_ID": "2020-019B",
       "EPOCH": "2022-03-13T13:11:52.668960",
       "MEAN_MOTION": 15.06411891,
       "ECCENTRICITY": 0.0001506,
       "INCLINATION": 53.0527,
       "RA_OF_ASC_NODE": 207.9715,
       "ARG_OF_PERICENTER": 78.688,
       "MEAN_ANOMALY": 281.4278,
       "EPHEMERIS_TYPE": 0,
       "CLASSIFICATION_TYPE": "U",
       "NORAD_CAT_ID": 45361,
       "ELEMENT_SET_NO": 999,
       "REV_AT_EPOCH": 11038,
       "BSTAR": 0.00030984,
       "MEAN_MOTION_DOT": 0.00004338,
       "MEAN_MOTION_DDOT": 0
    },
    {
       "OBJECT_NAME": "STARLINK-1306",
       "OBJECT_ID": "2020-019C",
       "EPOCH": "2022-03-13T14:18:13.956768",
       "MEAN_MOTION": 15.06410589,
       "ECCENTRICITY": 0.0001527,
       "INCLINATION": 53.0541,
       "RA_OF_ASC_NODE": 227.7637,
       "ARG_OF_PERICENTER": 68.3733,
       "MEAN_ANOMALY": 291.7418,
       "EPHEMERIS_TYPE": 0,
       "CLASSIFICATION_TYPE": "U",
       "NORAD_CAT_ID": 45362,
       "ELEMENT_SET_NO": 999,
       "REV_AT_EPOCH": 11010,
       "BSTAR": 0.000059211,
       "MEAN_MOTION_DOT": 0.00000601,
       "MEAN_MOTION_DDOT": 0
    },
    {
       "OBJECT_NAME": "STARLINK-1313",
       "OBJECT_ID": "2020-019E",
       "EPOCH": "2022-03-13T19:45:58.987296",
       "MEAN_MOTION": 15.06412322,
       "ECCENTRICITY": 0.0001897,
       "INCLINATION": 53.0538,
       "RA_OF_ASC_NODE": 196.7501,
       "ARG_OF_PERICENTER": 46.3527,
       "MEAN_ANOMALY": 313.7619,
       "EPHEMERIS_TYPE": 0,
       "CLASSIFICATION_TYPE": "U",
       "NORAD_CAT_ID": 45364,
       "ELEMENT_SET_NO": 999,
       "REV_AT_EPOCH": 11055,
       "BSTAR": 0.00050417,
       "MEAN_MOTION_DOT": 0.00007238,
       "MEAN_MOTION_DDOT": 0
    }
 ]